GAOFEN-5 01             
1 43461U 18043A   26062.83494692  .00000677  00000+0  14964-3 0  9991
2 43461  98.4456  32.2818 0002838  63.0287 297.1202 14.60515935416314
GAOFEN-6                
1 43484U 18048A   26063.17160503  .00000792  00000+0  12038-3 0  9998
2 43484  97.7889 129.6471 0012803 151.4641 208.7272 14.76584090417890
GAOFEN-11 01            
1 43585U 18063A   26063.19502369  .00022227  00000+0  36978-3 0  9995
2 43585  97.1430 130.5463 0004233  22.0783 338.0652 15.52048363424045
ICESAT-2                
1 43613U 18070A   26063.12679780  .00004358  00000+0  15817-3 0  9994
2 43613  91.9986 262.6722 0003122 132.4523 227.6991 15.28282311416411
HYSIS                   
1 43719U 18096A   26063.18726532  .00000801  00000+0  11640-3 0  9992
2 43719  97.9958 130.7072 0001663 101.4827 258.6570 14.78638550391904
KAZSTSAT                
1 43783U 18099AB  26063.08072890  .00001373  00000+0  11608-3 0  9995
2 43783  97.4412  99.7197 0007222  28.8718 331.2905 14.99606261395557
SAUDISAT 5A             
1 43831U 18102A   26063.21906053  .00009379  00000+0  35760-3 0  9995
2 43831  97.3199 126.8427 0011038 139.7871 220.4187 15.26847435399659
SAUDISAT 5B             
1 43833U 18102C   26063.19195453  .00009317  00000+0  35184-3 0  9990
2 43833  97.3297 129.6985 0011721 142.4051 217.8010 15.27158957399762
GAOFEN-10R              
1 44622U 19066A   26063.16636466  .00002364  00000+0  29662-3 0  9997
2 44622  98.0390  16.0607 0007971 121.3206 238.8789 14.83130187346811
CARTOSAT-3              
1 44804U 19081A   26063.17021749  .00006498  00000+0  31002-3 0  9992
2 44804  97.4438 126.6588 0013526 157.0623 203.1218 15.19336199347529
GAOFEN-12 01            
1 44819U 19082A   26063.18002295  .00000726  00000+0  10188-3 0  9995
2 44819  97.8141  72.3232 0002020  63.2665 296.8754 14.80357540338551
CSG-1                   
1 44873U 19092A   26063.13996396  .00000886  00000+0  11784-3 0  9995
2 44873  97.8862 248.2581 0001322  86.6239 273.5125 14.82164684335910
NEMO-HD                 
1 46277U 20061F   26063.17037885  .00015703  00000+0  36574-3 0  9994
2 46277  97.2056 126.2820 0002526  85.3170 274.8366 15.42353400305783
SENTINEL-6A             
1 46984U 20086A   26063.15145807 -.00000052  00000+0  37838-4 0  9995
2 46984  66.0446 353.2138 0007822 270.8189  89.1929 12.80929563246878
GAOFEN-12 02            
1 48079U 21026A   26063.17991723  .00000739  00000+0  10413-3 0  9995
2 48079  97.9913  61.8069 0004153 198.8760 161.2298 14.80195558266223
PLEIADES NEO 3          
1 48268U 21034A   26063.17263013  .00000286  00000+0  42949-4 0  9995
2 48268  97.8937 139.4466 0001303  92.3304 267.8059 14.81673978262106
PLEIADES NEO 4          
1 49070U 21073E   26063.20638528  .00000336  00000+0  49269-4 0  9999
2 49070  97.8940 139.4760 0001300  90.8981 269.2381 14.81670833245821
