[{"OBJECT_NAME":"GAOFEN-5 01","OBJECT_ID":"2018-043A","EPOCH":"2026-03-03T20:02:19.413888","MEAN_MOTION":14.60515935,"ECCENTRICITY":0.00028383,"INCLINATION":98.4456,"RA_OF_ASC_NODE":32.2818,"ARG_OF_PERICENTER":63.0287,"MEAN_ANOMALY":297.1202,"EPHEMERIS_TYPE":0,"CLASSIFICATION_TYPE":"U","NORAD_CAT_ID":43461,"ELEMENT_SET_NO":999,"REV_AT_EPOCH":41631,"BSTAR":0.00014964044,"MEAN_MOTION_DOT":6.77e-6,"MEAN_MOTION_DDOT":0},{"OBJECT_NAME":"GAOFEN-6","OBJECT_ID":"2018-048A","EPOCH":"2026-03-04T04:07:06.674592","MEAN_MOTION":14.7658409,"ECCENTRICITY":0.0012803,"INCLINATION":97.7889,"RA_OF_ASC_NODE":129.6471,"ARG_OF_PERICENTER":151.4641,"MEAN_ANOMALY":208.7272,"EPHEMERIS_TYPE":0,"CLASSIFICATION_TYPE":"U","NORAD_CAT_ID":43484,"ELEMENT_SET_NO":999,"REV_AT_EPOCH":41789,"BSTAR":0.00012038,"MEAN_MOTION_DOT":7.92e-6,"MEAN_MOTION_DDOT":0},{"OBJECT_NAME":"GAOFEN-11 01","OBJECT_ID":"2018-063A","EPOCH":"2026-03-04T04:40:50.046816","MEAN_MOTION":15.52048363,"ECCENTRICITY":0.0004233,"INCLINATION":97.143,"RA_OF_ASC_NODE":130.5463,"ARG_OF_PERICENTER":22.0783,"MEAN_ANOMALY":338.0652,"EPHEMERIS_TYPE":0,"CLASSIFICATION_TYPE":"U","NORAD_CAT_ID":43585,"ELEMENT_SET_NO":999,"REV_AT_EPOCH":42404,"BSTAR":0.00036978,"MEAN_MOTION_DOT":0.00022227,"MEAN_MOTION_DDOT":0},{"OBJECT_NAME":"ICESAT-2","OBJECT_ID":"2018-070A","EPOCH":"2026-03-04T03:02:35.329920","MEAN_MOTION":15.28282311,"ECCENTRICITY":0.0003122,"INCLINATION":91.9986,"RA_OF_ASC_NODE":262.6722,"ARG_OF_PERICENTER":132.4523,"MEAN_ANOMALY":227.6991,"EPHEMERIS_TYPE":0,"CLASSIFICATION_TYPE":"U","NORAD_CAT_ID":43613,"ELEMENT_SET_NO":999,"REV_AT_EPOCH":41641,"BSTAR":0.00015817,"MEAN_MOTION_DOT":4.358e-5,"MEAN_MOTION_DDOT":0},{"OBJECT_NAME":"HYSIS","OBJECT_ID":"2018-096A","EPOCH":"2026-03-04T04:29:39.723648","MEAN_MOTION":14.7863855,"ECCENTRICITY":0.0001663,"INCLINATION":97.9958,"RA_OF_ASC_NODE":130.7072,"ARG_OF_PERICENTER":101.4827,"MEAN_ANOMALY":258.657,"EPHEMERIS_TYPE":0,"CLASSIFICATION_TYPE":"U","NORAD_CAT_ID":43719,"ELEMENT_SET_NO":999,"REV_AT_EPOCH":39190,"BSTAR":0.0001164,"MEAN_MOTION_DOT":8.01e-6,"MEAN_MOTION_DDOT":0},{"OBJECT_NAME":"KAZSTSAT","OBJECT_ID":"2018-099AB","EPOCH":"2026-03-04T01:56:14.976960","MEAN_MOTION":14.99606261,"ECCENTRICITY":0.0007222,"INCLINATION":97.4412,"RA_OF_ASC_NODE":99.7197,"ARG_OF_PERICENTER":28.8718,"MEAN_ANOMALY":331.2905,"EPHEMERIS_TYPE":0,"CLASSIFICATION_TYPE":"U","NORAD_CAT_ID":43783,"ELEMENT_SET_NO":999,"REV_AT_EPOCH":39555,"BSTAR":0.00011608,"MEAN_MOTION_DOT":1.373e-5,"MEAN_MOTION_DDOT":0},{"OBJECT_NAME":"SAUDISAT 5A","OBJECT_ID":"2018-102A","EPOCH":"2026-03-04T05:15:26.829792","MEAN_MOTION":15.26847435,"ECCENTRICITY":0.0011038,"INCLINATION":97.3199,"RA_OF_ASC_NODE":126.8427,"ARG_OF_PERICENTER":139.7871,"MEAN_ANOMALY":220.4187,"EPHEMERIS_TYPE":0,"CLASSIFICATION_TYPE":"U","NORAD_CAT_ID":43831,"ELEMENT_SET_NO":999,"REV_AT_EPOCH":39965,"BSTAR":0.0003576,"MEAN_MOTION_DOT":9.379e-5,"MEAN_MOTION_DDOT":0},{"OBJECT_NAME":"SAUDISAT 5B","OBJECT_ID":"2018-102C","EPOCH":"2026-03-04T04:36:24.871392","MEAN_MOTION":15.27158957,"ECCENTRICITY":0.0011721,"INCLINATION":97.3297,"RA_OF_ASC_NODE":129.6985,"ARG_OF_PERICENTER":142.4051,"MEAN_ANOMALY":217.801,"EPHEMERIS_TYPE":0,"CLASSIFICATION_TYPE":"U","NORAD_CAT_ID":43833,"ELEMENT_SET_NO":999,"REV_AT_EPOCH":39976,"BSTAR":0.00035184,"MEAN_MOTION_DOT":9.317e-5,"MEAN_MOTION_DDOT":0},{"OBJECT_NAME":"GAOFEN-10R","OBJECT_ID":"2019-066A","EPOCH":"2026-03-04T03:59:33.906624","MEAN_MOTION":14.83130187,"ECCENTRICITY":0.0007971,"INCLINATION":98.039,"RA_OF_ASC_NODE":16.0607,"ARG_OF_PERICENTER":121.3206,"MEAN_ANOMALY":238.8789,"EPHEMERIS_TYPE":0,"CLASSIFICATION_TYPE":"U","NORAD_CAT_ID":44622,"ELEMENT_SET_NO":999,"REV_AT_EPOCH":34681,"BSTAR":0.00029662,"MEAN_MOTION_DOT":2.364e-5,"MEAN_MOTION_DDOT":0},{"OBJECT_NAME":"CARTOSAT-3","OBJECT_ID":"2019-081A","EPOCH":"2026-03-04T04:05:06.791136","MEAN_MOTION":15.19336199,"ECCENTRICITY":0.0013526,"INCLINATION":97.4438,"RA_OF_ASC_NODE":126.6588,"ARG_OF_PERICENTER":157.0623,"MEAN_ANOMALY":203.1218,"EPHEMERIS_TYPE":0,"CLASSIFICATION_TYPE":"U","NORAD_CAT_ID":44804,"ELEMENT_SET_NO":999,"REV_AT_EPOCH":34752,"BSTAR":0.00031002,"MEAN_MOTION_DOT":6.498e-5,"MEAN_MOTION_DDOT":0},{"OBJECT_NAME":"GAOFEN-12 01","OBJECT_ID":"2019-082A","EPOCH":"2026-03-04T04:19:13.982880","MEAN_MOTION":14.8035754,"ECCENTRICITY":0.000202,"INCLINATION":97.8141,"RA_OF_ASC_NODE":72.3232,"ARG_OF_PERICENTER":63.2665,"MEAN_ANOMALY":296.8754,"EPHEMERIS_TYPE":0,"CLASSIFICATION_TYPE":"U","NORAD_CAT_ID":44819,"ELEMENT_SET_NO":999,"REV_AT_EPOCH":33855,"BSTAR":0.00010188,"MEAN_MOTION_DOT":7.26e-6,"MEAN_MOTION_DDOT":0},{"OBJECT_NAME":"CSG-1","OBJECT_ID":"2019-092A","EPOCH":"2026-03-04T03:21:32.886144","MEAN_MOTION":14.82164684,"ECCENTRICITY":0.0001322,"INCLINATION":97.8862,"RA_OF_ASC_NODE":248.2581,"ARG_OF_PERICENTER":86.6239,"MEAN_ANOMALY":273.5125,"EPHEMERIS_TYPE":0,"CLASSIFICATION_TYPE":"U","NORAD_CAT_ID":44873,"ELEMENT_SET_NO":999,"REV_AT_EPOCH":33591,"BSTAR":0.00011784,"MEAN_MOTION_DOT":8.86e-6,"MEAN_MOTION_DDOT":0},{"OBJECT_NAME":"NEMO-HD","OBJECT_ID":"2020-061F","EPOCH":"2026-03-04T04:05:20.732640","MEAN_MOTION":15.423534,"ECCENTRICITY":0.0002526,"INCLINATION":97.2056,"RA_OF_ASC_NODE":126.282,"ARG_OF_PERICENTER":85.317,"MEAN_ANOMALY":274.8366,"EPHEMERIS_TYPE":0,"CLASSIFICATION_TYPE":"U","NORAD_CAT_ID":46277,"ELEMENT_SET_NO":999,"REV_AT_EPOCH":30578,"BSTAR":0.00036574,"MEAN_MOTION_DOT":0.00015703,"MEAN_MOTION_DDOT":0},{"OBJECT_NAME":"SENTINEL-6A","OBJECT_ID":"2020-086A","EPOCH":"2026-03-04T03:38:05.977248","MEAN_MOTION":12.80929563,"ECCENTRICITY":0.0007822,"INCLINATION":66.0446,"RA_OF_ASC_NODE":353.2138,"ARG_OF_PERICENTER":270.8189,"MEAN_ANOMALY":89.1929,"EPHEMERIS_TYPE":0,"CLASSIFICATION_TYPE":"U","NORAD_CAT_ID":46984,"ELEMENT_SET_NO":999,"REV_AT_EPOCH":24687,"BSTAR":3.7838e-5,"MEAN_MOTION_DOT":-5.2e-7,"MEAN_MOTION_DDOT":0},{"OBJECT_NAME":"GAOFEN-12 02","OBJECT_ID":"2021-026A","EPOCH":"2026-03-04T04:19:04.848672","MEAN_MOTION":14.80195558,"ECCENTRICITY":0.0004153,"INCLINATION":97.9913,"RA_OF_ASC_NODE":61.8069,"ARG_OF_PERICENTER":198.876,"MEAN_ANOMALY":161.2298,"EPHEMERIS_TYPE":0,"CLASSIFICATION_TYPE":"U","NORAD_CAT_ID":48079,"ELEMENT_SET_NO":999,"REV_AT_EPOCH":26622,"BSTAR":0.00010413,"MEAN_MOTION_DOT":7.39e-6,"MEAN_MOTION_DDOT":0},{"OBJECT_NAME":"PLEIADES NEO 3","OBJECT_ID":"2021-034A","EPOCH":"2026-03-04T04:08:35.243232","MEAN_MOTION":14.81673978,"ECCENTRICITY":0.0001303,"INCLINATION":97.8937,"RA_OF_ASC_NODE":139.4466,"ARG_OF_PERICENTER":92.3304,"MEAN_ANOMALY":267.8059,"EPHEMERIS_TYPE":0,"CLASSIFICATION_TYPE":"U","NORAD_CAT_ID":48268,"ELEMENT_SET_NO":999,"REV_AT_EPOCH":26210,"BSTAR":4.2949e-5,"MEAN_MOTION_DOT":2.86e-6,"MEAN_MOTION_DDOT":0},{"OBJECT_NAME":"PLEIADES NEO 4","OBJECT_ID":"2021-073E","EPOCH":"2026-03-04T04:57:11.688192","MEAN_MOTION":14.81670833,"ECCENTRICITY":0.00013,"INCLINATION":97.894,"RA_OF_ASC_NODE":139.476,"ARG_OF_PERICENTER":90.8981,"MEAN_ANOMALY":269.2381,"EPHEMERIS_TYPE":0,"CLASSIFICATION_TYPE":"U","NORAD_CAT_ID":49070,"ELEMENT_SET_NO":999,"REV_AT_EPOCH":24582,"BSTAR":4.9269e-5,"MEAN_MOTION_DOT":3.36e-6,"MEAN_MOTION_DDOT":0}]
